NORAD_CAT_ID,OBJECT_NAME,OBJECT_TYPE,EPOCH,MEAN_MOTION,ECCENTRICITY,INCLINATION,RA_OF_ASC_NODE,ARG_OF_PERICENTER,MEAN_ANOMALY,BSTAR,MEAN_MOTION_DOT,MEAN_MOTION_DDOT,TLE_LINE0,TLE_LINE1,TLE_LINE2,SEMIMAJOR_AXIS,PERIOD,APOGEE,PERIGEE,DECAYED
52368.0,STARLINK-3834,PAYLOAD,2022-10-02 10:35:40,15.08843923,0.000172,53.2171,59.6512,49.279,310.8351,7.6013e-05,9.22e-06,0.0,0 STARLINK-3834,1 52368U 22045AP  22275.44143721  .00000922  00000-0  76013-4 0  9995,2 52368  53.2171  59.6512 0001720  49.2790 310.8351 15.08843923 26567,6917.868,95.437,540.923,538.544,0.0
52368.0,STARLINK-3834,PAYLOAD,2022-10-02 18:32:35,15.08852704,0.000173,53.2174,58.1643,43.9018,316.2111,0.00017929,2.567e-05,0.0,0 STARLINK-3834,1 52368U 22045AP  22275.77263290  .00002567  00000-0  17929-3 0  9992,2 52368  53.2174  58.1643 0001730  43.9018 316.2111 15.08852704 26611,6917.842,95.437,540.903,538.51,0.0
52368.0,STARLINK-3834,PAYLOAD,2022-10-03 02:29:31,15.08844203,0.0001823,53.2168,56.6769,46.4209,313.6934,3.7333e-05,3.06e-06,0.0,0 STARLINK-3834,1 52368U 22045AP  22276.10383516  .00000306  00000-0  37333-4 0  9995,2 52368  53.2168  56.6769 0001823  46.4209 313.6934 15.08844203 26663,6917.868,95.437,540.994,538.471,0.0
52368.0,STARLINK-3834,PAYLOAD,2022-10-03 10:26:26,15.08851026,0.0001606,53.2161,55.1902,39.3931,320.7177,0.00022696,3.327e-05,0.0,0 STARLINK-3834,1 52368U 22045AP  22276.43503097  .00003327  00000-0  22696-3 0  9990,2 52368  53.2161  55.1902 0001606  39.3931 320.7177 15.08851026 26716,6917.847,95.437,540.823,538.601,0.0
52368.0,STARLINK-3834,PAYLOAD,2022-10-03 18:23:21,15.08861051,0.0001714,53.2161,53.7029,42.7522,317.3603,0.00040608,6.184e-05,0.0,0 STARLINK-3834,1 52368U 22045AP  22276.76622603  .00006184  00000-0  40608-3 0  9998,2 52368  53.2161  53.7029 0001714  42.7522 317.3603 15.08861051 26764,6917.816,95.436,540.867,538.495,0.0
52368.0,STARLINK-3834,PAYLOAD,2022-10-04 13:27:59,15.08857019,0.000204,53.2167,50.1358,49.0382,311.0786,0.00036854,5.585e-05,0.0,0 STARLINK-3834,1 52368U 22045AP  22277.56110288  .00005585  00000-0  36854-3 0  9990,2 52368  53.2167  50.1358 0002040  49.0382 311.0786 15.08857019 26888,6917.828,95.436,541.105,538.2819999999998,0.0
52368.0,STARLINK-3834,PAYLOAD,2022-10-04 15:03:22,15.08859866,0.000183,53.2165,49.8386,42.9631,317.1504,0.00045919,7.031e-05,0.0,0 STARLINK-3834,1 52368U 22045AP  22277.62734194  .00007031  00000-0  45919-3 0  9995,2 52368  53.2165  49.8386 0001830  42.9631 317.1504 15.08859866 26895,6917.82,95.436,540.951,538.419,0.0
52368.0,STARLINK-3834,PAYLOAD,2022-10-05 02:11:04,15.08846699,0.0001583,53.216,47.7555,38.8432,321.2674,0.0003323,5.005e-05,0.0,0 STARLINK-3834,1 52368U 22045AP  22278.09102295  .00005005  00000-0  33230-3 0  9990,2 52368  53.2160  47.7555 0001583  38.8432 321.2674 15.08846699 26965,6917.86,95.437,540.82,538.63,0.0
52368.0,STARLINK-3834,PAYLOAD,2022-10-05 08:32:37,15.08840414,0.0001864,53.2108,46.5661,48.1178,311.9973,0.00026018,3.855e-05,0.0,0 STARLINK-3834,1 52368U 22045AP  22278.35598491  .00003855  00000-0  26018-3 0  9993,2 52368  53.2108  46.5661 0001864  48.1178 311.9973 15.08840414 27008,6917.879,95.438,541.034,538.455,0.0
52368.0,STARLINK-3834,PAYLOAD,2022-10-05 14:54:10,15.08830666,0.0001827,53.2141,45.3744,53.3583,306.7577,-0.00013042,-2.363e-05,0.0,0 STARLINK-3834,1 52368U 22045AP  22278.62094949 -.00002363  00000-0 -13042-3 0  9990,2 52368  53.2141  45.3744 0001827  53.3583 306.7577 15.08830666 27045,6917.909000000002,95.438,541.038,538.51,0.0
52368.0,STARLINK-3834,PAYLOAD,2022-10-06 19:31:06,15.08842455,0.0002036,53.2174,40.0249,42.4824,317.6326,0.00027212,4.046e-05,0.0,0 STARLINK-3834,1 52368U 22045AP  22279.81327223  .00004046  00000-0  27212-3 0  9998,2 52368  53.2174  40.0249 0002036  42.4824 317.6326 15.08842455 27225,6917.873000000001,95.437,541.146,538.3290000000002,0.0
52368.0,STARLINK-3834,PAYLOAD,2022-10-07 11:24:58,15.08839871,0.000192,53.2171,37.0521,36.3,323.8122,0.00033476,5.044e-05,0.0,0 STARLINK-3834,1 52368U 22045AP  22280.47567414  .00005044  00000-0  33476-3 0  9998,2 52368  53.2171  37.0521 0001920  36.3000 323.8122 15.08839871 27322,6917.880999999999,95.438,541.0740000000002,538.418,0.0
52368.0,STARLINK-3834,PAYLOAD,2022-10-07 19:21:53,15.08842954,0.0002026999999999,53.2177,35.5658,39.4362,320.6777,0.00021564,3.146e-05,0.0,0 STARLINK-3834,1 52368U 22045AP  22280.80687238  .00003146  00000-0  21564-3 0  9998,2 52368  53.2177  35.5658 0002027  39.4362 320.6777 15.08842954 27378,6917.871,95.437,541.139,538.3340000000002,0.0
52368.0,STARLINK-3834,PAYLOAD,2022-10-08 11:15:46,15.08818661,0.0001994,53.2166,32.59,42.5101,317.6045,0.00016643,2.36e-05,0.0,0 STARLINK-3834,1 52368U 22045AP  22281.46928407  .00002360  00000-0  16643-3 0  9996,2 52368  53.2166  32.5900 0001994  42.5101 317.6045 15.08818661 27474,6917.946,95.439,541.19,538.431,0.0
52368.0,STARLINK-3834,PAYLOAD,2022-10-08 12:51:09,15.08828973,0.0002195,53.2176,32.2935,38.6042,321.5106,-4.0527e-05,-9.33e-06,0.0,0 STARLINK-3834,1 52368U 22045AP  22281.53552174 -.00000933  00000-0 -40527-4 0  9993,2 52368  53.2176  32.2935 0002195  38.6042 321.5106 15.08828973 27484,6917.9140000000025,95.438,541.298,538.261,0.0
52368.0,STARLINK-3834,PAYLOAD,2022-10-08 19:12:41,15.0883527,0.0002099,53.2191,31.1033,42.4034,317.712,4.8056e-05,4.77e-06,0.0,0 STARLINK-3834,1 52368U 22045AP  22281.80048134  .00000477  00000-0  48056-4 0  9995,2 52368  53.2191  31.1033 0002099  42.4034 317.7120 15.08835270 27521,6917.895,95.438,541.212,538.308,0.0
52368.0,STARLINK-3834,PAYLOAD,2022-10-08 23:58:50,15.08841271,0.0002088,53.2187,30.2116,41.0305,319.0844,0.00012403,1.686e-05,0.0,0 STARLINK-3834,1 52368U 22045AP  22281.99919577  .00001686  00000-0  12403-3 0  9992,2 52368  53.2187  30.2116 0002088  41.0305 319.0844 15.08841271 27551,6917.877,95.437,541.186,538.297,0.0
52368.0,STARLINK-3834,PAYLOAD,2022-10-09 12:41:56,15.08833103,0.0001916999999999,53.2187,27.8345,43.9122,316.2022,2.4597e-05,1.03e-06,0.0,0 STARLINK-3834,1 52368U 22045AP  22282.52912466  .00000103  00000-0  24597-4 0  9993,2 52368  53.2187  27.8345 0001917  43.9122 316.2022 15.08833103 27636,6917.901,95.438,541.0930000000002,538.44,0.0
52368.0,STARLINK-3834,PAYLOAD,2022-10-09 14:17:19,15.08832238,0.0001965,53.2185,27.5371,41.6158,318.4983,1.7537e-05,-9e-08,0.0,0 STARLINK-3834,1 52368U 22045AP  22282.59536551 -.00000009  00000-0  17537-4 0  9999,2 52368  53.2185  27.5371 0001965  41.6158 318.4983 15.08832238 27646,6917.904,95.438,541.128,538.41,0.0
52368.0,STARLINK-3834,PAYLOAD,2022-10-09 17:28:05,15.08840671,0.0001924,53.2188,26.9425,44.0159,316.0986,9.4893e-05,1.222e-05,0.0,0 STARLINK-3834,1 52368U 22045AP  22282.72783913  .00001222  00000-0  94893-4 0  9997,2 52368  53.2188  26.9425 0001924  44.0159 316.0986 15.08840671 27664,6917.878000000002,95.438,541.0740000000002,538.4119999999998,0.0
52368.0,STARLINK-3834,PAYLOAD,2022-10-09 19:03:28,15.08841948,0.0001934,53.2185,26.6454,44.9906,315.1243,0.00013184,1.811e-05,0.0,0 STARLINK-3834,1 52368U 22045AP  22282.79407861  .00001811  00000-0  13184-3 0  9996,2 52368  53.2185  26.6454 0001934  44.9906 315.1243 15.08841948 27675,6917.874,95.437,541.077,538.4019999999998,0.0
52368.0,STARLINK-3834,PAYLOAD,2022-10-10 12:32:42,15.0884355,0.0002044,53.2179,23.3734,37.6363,322.4772,0.00026106,3.869e-05,0.0,0 STARLINK-3834,1 52368U 22045AP  22283.52271725  .00003869  00000-0  26106-3 0  9999,2 52368  53.2179  23.3734 0002044  37.6363 322.4772 15.08843550 27783,6917.87,95.437,541.149,538.321,0.0
52368.0,STARLINK-3834,PAYLOAD,2022-10-10 15:43:28,15.08847867,0.000204,53.2181,22.7787,39.0669,321.0471,0.00026553,3.941e-05,0.0,0 STARLINK-3834,1 52368U 22045AP  22283.65519528  .00003941  00000-0  26553-3 0  9996,2 52368  53.2181  22.7787 0002040  39.0669 321.0471 15.08847867 27807,6917.856,95.437,541.133,538.31,0.0
52368.0,STARLINK-3834,PAYLOAD,2022-10-10 23:40:24,15.08843591,0.0002054,53.2175,21.2915,36.8677,323.2456,5.1029e-05,5.24e-06,0.0,0 STARLINK-3834,1 52368U 22045AP  22283.98639544  .00000524  00000-0  51029-4 0  9994,2 52368  53.2175  21.2915 0002054  36.8677 323.2456 15.08843591 27858,6917.869000000002,95.437,541.155,538.313,0.0
52368.0,STARLINK-3834,PAYLOAD,2022-10-11 12:23:31,15.08818093,0.0002164,53.2182,18.9135,38.3131,321.8015,-0.00021406,-3.691e-05,0.0,0 STARLINK-3834,1 52368U 22045AP  22284.51633152 -.00003691  00000-0 -21406-3 0  9998,2 52368  53.2182  18.9135 0002164  38.3131 321.8015 15.08818093 27930,6917.946999999999,95.439,541.309,538.315,0.0
52368.0,STARLINK-3834,PAYLOAD,2022-10-11 18:45:05,15.08812203,0.0002149,53.2183,17.7245,34.3256,325.7874,-0.00011771,-2.1600000000000007e-05,0.0,0 STARLINK-3834,1 52368U 22045AP  22284.78130831 -.00002160  00000-0 -11771-3 0  9997,2 52368  53.2183  17.7245 0002149  34.3256 325.7874 15.08812203 27974,6917.965,95.439,541.317,538.344,0.0
52368.0,STARLINK-3834,PAYLOAD,2022-10-12 12:14:17,15.08838657,0.0002275999999999,53.218,14.4549,33.661,326.4527,4.759100000000001e-05,4.69e-06,0.0,0 STARLINK-3834,1 52368U 22045AP  22285.50992875  .00000469  00000-0  47591-4 0  9990,2 52368  53.2180  14.4549 0002276  33.6610 326.4527 15.08838657 28086,6917.884,95.438,541.3240000000002,538.175,0.0
52368.0,STARLINK-3834,PAYLOAD,2022-10-12 18:35:50,15.08839699,0.0001999,53.2179,13.2625,35.7463,324.3663,4.1852e-05,3.78e-06,0.0,0 STARLINK-3834,1 52368U 22045AP  22285.77488762  .00000378  00000-0  41852-4 0  9997,2 52368  53.2179  13.2625 0001999  35.7463 324.3663 15.08839699 28126,6917.880999999999,95.438,541.129,538.363,0.0
52368.0,STARLINK-3834,PAYLOAD,2022-10-13 12:05:04,15.08834533,0.0002179,53.218,9.9918,37.3561,322.7583,0.00017791,2.544e-05,0.0,0 STARLINK-3834,1 52368U 22045AP  22286.50352901  .00002544  00000-0  17791-3 0  9995,2 52368  53.2180   9.9918 0002179  37.3561 322.7583 15.08834533 28230,6917.897,95.438,541.27,538.255,0.0
